STARLINK-1273           
1 45367U 20019H   26068.53463122  .00072311  00000+0  15437-2 0  9990
2 45367  53.0509 155.5528 0002147   0.3875 359.7131 15.44237041329876
FLOCK 4BE-12            
1 60560U 24149CW  26068.79504640  .00117755  00000+0  23198-2 0  9994
2 60560  97.3748 152.7697 0006270 265.3801  94.6732 15.46768533 87086
