[{"OBJECT_NAME":"STARLINK-1273","OBJECT_ID":"2020-019H","EPOCH":"2026-03-09T12:49:52.137408","MEAN_MOTION":15.44237041,"ECCENTRICITY":0.00021479,"INCLINATION":53.0509,"RA_OF_ASC_NODE":155.5528,"ARG_OF_PERICENTER":0.3875,"MEAN_ANOMALY":359.7131,"EPHEMERIS_TYPE":0,"CLASSIFICATION_TYPE":"U","NORAD_CAT_ID":45367,"ELEMENT_SET_NO":999,"REV_AT_EPOCH":32987,"BSTAR":0.0015436718,"MEAN_MOTION_DOT":0.00072311,"MEAN_MOTION_DDOT":0},{"OBJECT_NAME":"FLOCK 4BE-12","OBJECT_ID":"2024-149CW","EPOCH":"2026-03-09T19:04:52.008960","MEAN_MOTION":15.46768533,"ECCENTRICITY":0.00062704,"INCLINATION":97.3748,"RA_OF_ASC_NODE":152.7697,"ARG_OF_PERICENTER":265.3801,"MEAN_ANOMALY":94.6732,"EPHEMERIS_TYPE":0,"CLASSIFICATION_TYPE":"U","NORAD_CAT_ID":60560,"ELEMENT_SET_NO":999,"REV_AT_EPOCH":8708,"BSTAR":0.0023197873,"MEAN_MOTION_DOT":0.00117755,"MEAN_MOTION_DDOT":0}]
